0 FENGYUN 3B
1 37214U 10059A   13282.41402795  .00000041  00000-0  40704-4 0  1996
2 37214 098.8123 226.5763 0002090 086.6182 273.5228 14.19364687151761
0 FENGYUN 3B
1 37214U 10059A   13282.76649625  .00000041  00000-0  40513-4 0  2000
2 37214 098.8126 226.9270 0002093 086.2136 273.9282 14.19364735151813
0 FENGYUN 3B
1 37214U 10059A   13283.04847075  .00000036  00000-0  38246-4 0  2016
2 37214 098.8125 227.2075 0002097 085.4910 274.6506 14.19364740151851
0 FENGYUN 3B
1 37214U 10059A   13283.40093878  .00000035  00000-0  37821-4 0  2028
2 37214 098.8126 227.5583 0002091 085.1899 274.9516 14.19364800151903
0 FENGYUN 3B
1 37214U 10059A   13283.75340684  .00000051  00000-0  45367-4 0  2028
2 37214 098.8129 227.9091 0002083 084.2060 275.9367 14.19365037151958
0 FENGYUN 3B
1 37214U 10059A   13284.10587447  .00000056  00000-0  47936-4 0  2038
2 37214 098.8129 228.2598 0002081 083.4270 276.7149 14.19365200152002
0 FENGYUN 3B
1 37214U 10059A   13284.38784862  .00000060  00000-0  49862-4 0  2044
2 37214 098.8129 228.5402 0002089 082.8517 277.2896 14.19365323152049
0 FENGYUN 3B
1 37214U 10059A   13285.37475832  .00000076  00000-0  57320-4 0  2076
2 37214 098.8135 229.5224 0002114 082.1106 278.0308 14.19365746152186
0 FENGYUN 3B
1 37214U 10059A   13285.72722619  .00000085  00000-0  61591-4 0  2089
2 37214 098.8138 229.8732 0002117 081.4421 278.6998 14.19365911152232
0 FENGYUN 3B
1 37214U 10059A   13286.07969383  .00000084  00000-0  61099-4 0  2092
2 37214 098.8137 230.2239 0002104 080.7468 279.3948 14.19366022152280
0 FENGYUN 3B
1 37214U 10059A   13286.43216153  .00000082  00000-0  60301-4 0  2107
2 37214 098.8138 230.5745 0002110 080.4249 279.7162 14.19366094152334
0 FENGYUN 3B
1 37214U 10059A   13286.78462941  .00000087  00000-0  62407-4 0  2118
2 37214 098.8141 230.9255 0002097 079.8370 280.3047 14.19366212152386
0 FENGYUN 3B
1 37214U 10059A   13287.06660354  .00000082  00000-0  59999-4 0  2126
2 37214 098.8141 231.2061 0002098 079.5005 280.6407 14.19366234152420
0 FENGYUN 3B
1 37214U 10059A   13287.41907123  .00000084  00000-0  61202-4 0  2136
2 37214 098.8143 231.5569 0002099 078.8074 281.3337 14.19366343152473
0 FENGYUN 3B
1 37214U 10059A   13287.77153909  .00000082  00000-0  60350-4 0  2142
2 37214 098.8147 231.9078 0002096 078.0755 282.0657 14.19366382152523
0 FENGYUN 3B
1 37214U 10059A   13288.05351326  .00000082  00000-0  60141-4 0  2156
2 37214 098.8146 232.1883 0002092 077.3469 282.7944 14.19366460152566
0 FENGYUN 3B
1 37214U 10059A   13288.40598069  .00000090  00000-0  64134-4 0  2168
2 37214 098.8148 232.5393 0002113 076.6430 283.4981 14.19366650152618
0 FENGYUN 3B
1 37214U 10059A   13288.75844833  .00000101  00000-0  69420-4 0  2176
2 37214 098.8148 232.8901 0002111 076.3647 283.7775 14.19366869152662
0 FENGYUN 3B
1 37214U 10059A   13289.11091570  .00000107  00000-0  71872-4 0  2180
2 37214 098.8148 233.2409 0002109 075.3558 284.7859 14.19367037152715
0 FENGYUN 3B
1 37214U 10059A   13289.39288940  .00000111  00000-0  74013-4 0  2195
2 37214 098.8150 233.5218 0002131 075.0662 285.0745 14.19367178152755
0 FENGYUN 3B
1 37214U 10059A   13289.74535701  .00000119  00000-0  77799-4 0  2208
2 37214 098.8149 233.8724 0002139 075.0081 285.1337 14.19367359152806
0 FENGYUN 3B
1 37214U 10059A   13290.09782426  .00000125  00000-0  80419-4 0  2217
2 37214 098.8149 234.2231 0002139 074.1239 286.0177 14.19367554152853
0 FENGYUN 3B
1 37214U 10059A   13290.37979798  .00000129  00000-0  82365-4 0  2225
2 37214 098.8150 234.5038 0002151 074.0366 286.1048 14.19367710152893
0 FENGYUN 3B
1 37214U 10059A   13290.73226535  .00000130  00000-0  83114-4 0  2235
2 37214 098.8150 234.8545 0002160 073.5388 286.6026 14.19367834152941
0 FENGYUN 3B
1 37214U 10059A   13291.08473267  .00000126  00000-0  81157-4 0  2241
2 37214 098.8151 235.2052 0002164 072.7459 287.3952 14.19367919152999
0 FENGYUN 3B
1 37214U 10059A   13291.43719995  .00000126  00000-0  81242-4 0  2257
2 37214 098.8153 235.5561 0002165 072.4318 287.7095 14.19368047153043
0 FENGYUN 3B
1 37214U 10059A   13291.71917378  .00000130  00000-0  82926-4 0  2269
2 37214 098.8156 235.8369 0002168 072.0915 288.0499 14.19368157153085
0 FENGYUN 3B
1 37214U 10059A   13292.07164116  .00000117  00000-0  76675-4 0  2273
2 37214 098.8155 236.1875 0002170 071.2989 288.8420 14.19368140153135
0 FENGYUN 3B
1 37214U 10059A   13292.42410843  .00000113  00000-0  75030-4 0  2284
2 37214 098.8155 236.5384 0002171 070.9240 289.2169 14.19368219153188
0 FENGYUN 3B
1 37214U 10059A   13292.77657585  .00000114  00000-0  75499-4 0  2299
2 37214 098.8155 236.8890 0002162 070.1682 289.9735 14.19368333153234
0 FENGYUN 3B
1 37214U 10059A   13293.05854955  .00000108  00000-0  72432-4 0  2300
2 37214 098.8155 237.1696 0002168 069.2644 290.8763 14.19368349153278
0 FENGYUN 3B
1 37214U 10059A   13293.41101675  .00000104  00000-0  70746-4 0  2317
2 37214 098.8156 237.5206 0002161 068.6252 291.5153 14.19368417153324
0 FENGYUN 3B
1 37214U 10059A   13293.76348403  .00000109  00000-0  72902-4 0  2329
2 37214 098.8156 237.8712 0002162 068.0181 292.1230 14.19368564153376
0 FENGYUN 3B
1 37214U 10059A   13294.04545748  .00000114  00000-0  75471-4 0  2333
2 37214 098.8155 238.1519 0002162 067.0960 293.0447 14.19368736153414
0 FENGYUN 3B
1 37214U 10059A   13294.39792440  .00000114  00000-0  75626-4 0  2347
2 37214 098.8157 238.5028 0002174 066.8593 293.2804 14.19368835153461
0 FENGYUN 3B
1 37214U 10059A   13294.75039162  .00000125  00000-0  80511-4 0  2354
2 37214 098.8158 238.8536 0002157 065.9501 294.1912 14.19369063153519
0 FENGYUN 3B
1 37214U 10059A   13295.10285831  .00000131  00000-0  83613-4 0  2364
2 37214 098.8158 239.2044 0002158 065.1654 294.9749 14.19369266153566
0 FENGYUN 3B
1 37214U 10059A   13295.38483164  .00000132  00000-0  83820-4 0  2375
2 37214 098.8160 239.4851 0002172 065.0294 295.1098 14.19369363153605
0 FENGYUN 3B
1 37214U 10059A   13295.73729905  .00000131  00000-0  83330-4 0  2386
2 37214 098.8159 239.8358 0002166 064.3804 295.7604 14.19369444153655
0 FENGYUN 3B
1 37214U 10059A   13296.08976565  .00000134  00000-0  84785-4 0  2390
2 37214 098.8160 240.1865 0002164 063.4269 296.7131 14.19369632153709
